25478,ORBCOMM FM24,1998,100.14,-1.0,-,45.01,Inactive,0,LEO,Eastern Range Airspace,ORBCOMM,Unknown,Unknown,Unknown,1 25478U 98053D   25145.79830503  .00000814  00000+0  31287-3 0  9999,2 25478  45.0095  15.2477 0002286  97.3249 262.7859 14.38051138394222,14.38051138,0.0002286,LEO
25479,ORBCOMM FM25,1998,100.14,-1.0,-,45.01,Inactive,0,LEO,Eastern Range Airspace,ORBCOMM,Unknown,Unknown,Unknown,1 25479U 98053E   25145.83873092  .00000798  00000+0  30777-3 0  9999,2 25479  45.0086  13.3238 0004393 122.3497 237.7777 14.38026353394527,14.38026353,0.0004393,LEO
25480,ORBCOMM FM26,1998,100.2,-1.0,-,45.01,Inactive,0,LEO,Eastern Range Airspace,ORBCOMM,Unknown,Unknown,Unknown,1 25480U 98053F   25145.97469515  .00000684  00000+0  27555-3 0  9991,2 25480  45.0081   8.9782 0005955 145.7213 214.4020 14.37096359394455,14.37096359,0.0005955,LEO
25482,ORBCOMM FM28,1998,100.12,-1.0,-,45.01,Inactive,0,LEO,Eastern Range Airspace,ORBCOMM,Unknown,Unknown,Unknown,1 25482U 98053H   25145.79803966  .00000754  00000+0  29215-3 0  9998,2 25482  45.0064 311.2620 0005345 182.3777 177.7047 14.38250032395131,14.38250032,0.0005345,LEO
25980,ORBCOMM FM30,1999,100.19,45.0,-,45.03,Inactive,1,LEO,Eastern Range Airspace,ORBCOMM,Commercial,Communications,Pegasus,1 25980U 99065A   25145.82814569  .00000549  00000+0  22987-3 0  9991,2 25980  45.0300 195.5450 0008703 256.7162 103.2715 14.37260373331231,14.37260373,0.0008703,LEO
25981,ORBCOMM FM31,1999,100.19,45.0,-,45.02,Inactive,1,LEO,Eastern Range Airspace,ORBCOMM,Commercial,Communications,Pegasus,1 25981U 99065B   25145.80047626  .00000451  00000+0  19731-3 0  9997,2 25981  45.0215 189.1705 0006036 274.1091  85.9067 14.37199350330782,14.3719935,0.0006036,LEO
25481,ORBCOMM FM27,1998,100.14,45.0,+,45.01,Active,1,LEO,Eastern Range Airspace,ORBCOMM,Commercial,Communications,Pegasus,1 25481U 98053G   25145.89634989  .00000932  00000+0  35146-3 0  9993,2 25481  45.0067  13.2620 0000950  78.0005 282.0949 14.38054005394462,14.38054005,9.5e-05,LEO
25982,ORBCOMM FM32,1999,100.26,45.0,+,45.01,Active,1,LEO,Eastern Range Airspace,ORBCOMM,Commercial,Communications,Pegasus,1 25982U 99065C   25145.48427037  .00000549  00000+0  23427-3 0  9995,2 25982  45.0145 207.0928 0008157 268.9994  90.9919 14.36243307331336,14.36243307,0.0008157,LEO
